{
  "type": "FeatureCollection",
  "features": [
    {
      "type": "Feature",
      "properties": {
        "norad_id": 39773,
        "name": "EUTELSAT 3B",
        "group": "eutelsat",
        "lat": 0.030265759426114418,
        "lon": 10.04365177444787,
        "alt_km": 35800.67351092963,
        "timestamp": "2025-12-14T18:52:55.169551+00:00",
        "meta_object_name": "EUTELSAT 3B",
        "meta_object_id": "2014-030A",
        "meta_epoch": "2025-12-13T22:23:38.652000",
        "meta_mean_motion": 1.00271041,
        "meta_eccentricity": 0.00044917,
        "meta_inclination": 0.0605,
        "meta_ra_of_asc_node": 352.017,
        "meta_arg_of_pericenter": 238.2985,
        "meta_mean_anomaly": 191.5464,
        "meta_ephemeris_type": 0,
        "meta_classification_type": "U",
        "meta_norad_cat_id": 39773,
        "meta_element_set_no": 999,
        "meta_rev_at_epoch": 4221,
        "meta_bstar": 0,
        "meta_mean_motion_dot": 3.6e-07,
        "meta_mean_motion_ddot": 0,
        "tle_line1": "1 39773U 14030A   25347.93308625  .00000036  00000+0  00000+0 0  9991",
        "tle_line2": "2 39773   0.0605 352.0170 0004491 238.2985 191.5464  1.00271041 42210"
      },
      "geometry": {
        "type": "Point",
        "coordinates": [
          10.04365177444787,
          0.030265759426114418
        ]
      }
    },
    {
      "type": "Feature",
      "properties": {
        "norad_id": 40425,
        "name": "EUTELSAT 115 WEST B",
        "group": "eutelsat",
        "lat": -0.00018462568347661724,
        "lon": -107.96762858496541,
        "alt_km": 35785.7653672668,
        "timestamp": "2025-12-14T18:52:55.169563+00:00",
        "meta_object_name": "EUTELSAT 115 WEST B",
        "meta_object_id": "2015-010B",
        "meta_epoch": "2025-12-13T23:10:34.671648",
        "meta_mean_motion": 1.00272064,
        "meta_eccentricity": 9.43e-06,
        "meta_inclination": 0.0211,
        "meta_ra_of_asc_node": 164.5566,
        "meta_arg_of_pericenter": 29.6564,
        "meta_mean_anomaly": 121.4326,
        "meta_ephemeris_type": 0,
        "meta_classification_type": "U",
        "meta_norad_cat_id": 40425,
        "meta_element_set_no": 999,
        "meta_rev_at_epoch": 3953,
        "meta_bstar": 0,
        "meta_mean_motion_dot": -8e-08,
        "meta_mean_motion_ddot": 0,
        "tle_line1": "1 40425U 15010B   25347.96567907 -.00000008  00000+0  00000+0 0  9999",
        "tle_line2": "2 40425   0.0211 164.5566 0000094  29.6564 121.4326  1.00272064 39530"
      },
      "geometry": {
        "type": "Point",
        "coordinates": [
          -107.96762858496541,
          -0.00018462568347661724
        ]
      }
    },
    {
      "type": "Feature",
      "properties": {
        "norad_id": 40875,
        "name": "EUTELSAT 8 WEST B",
        "group": "eutelsat",
        "lat": -0.0065050213100728066,
        "lon": -1.0174803476247825,
        "alt_km": 35787.7632186054,
        "timestamp": "2025-12-14T18:52:55.169575+00:00",
        "meta_object_name": "EUTELSAT 8 WEST B",
        "meta_object_id": "2015-039B",
        "meta_epoch": "2025-12-13T22:31:38.836416",
        "meta_mean_motion": 1.00271724,
        "meta_eccentricity": 0.00042368,
        "meta_inclination": 0.0664,
        "meta_ra_of_asc_node": 10.8795,
        "meta_arg_of_pericenter": 252.775,
        "meta_mean_anomaly": 149.1354,
        "meta_ephemeris_type": 0,
        "meta_classification_type": "U",
        "meta_norad_cat_id": 40875,
        "meta_element_set_no": 999,
        "meta_rev_at_epoch": 3779,
        "meta_bstar": 0,
        "meta_mean_motion_dot": -4.9e-07,
        "meta_mean_motion_ddot": 0,
        "tle_line1": "1 40875U 15039B   25347.93864394 -.00000049  00000+0  00000+0 0  9991",
        "tle_line2": "2 40875   0.0664  10.8795 0004236 252.7750 149.1354  1.00271724 37792"
      },
      "geometry": {
        "type": "Point",
        "coordinates": [
          -1.0174803476247825,
          -0.0065050213100728066
        ]
      }
    },
    {
      "type": "Feature",
      "properties": {
        "norad_id": 41310,
        "name": "EUTELSAT 9B",
        "group": "eutelsat",
        "lat": -0.021305636791878513,
        "lon": 15.964243518495133,
        "alt_km": 35791.31924272776,
        "timestamp": "2025-12-14T18:52:55.169587+00:00",
        "meta_object_name": "EUTELSAT 9B",
        "meta_object_id": "2016-005A",
        "meta_epoch": "2025-12-13T22:23:38.652000",
        "meta_mean_motion": 1.00270563,
        "meta_eccentricity": 0.00045954,
        "meta_inclination": 0.048,
        "meta_ra_of_asc_node": 66.2166,
        "meta_arg_of_pericenter": 205.0507,
        "meta_mean_anomaly": 156.4987,
        "meta_ephemeris_type": 0,
        "meta_classification_type": "U",
        "meta_norad_cat_id": 41310,
        "meta_element_set_no": 999,
        "meta_rev_at_epoch": 3625,
        "meta_bstar": 0,
        "meta_mean_motion_dot": 7.8e-07,
        "meta_mean_motion_ddot": 0,
        "tle_line1": "1 41310U 16005A   25347.93308625  .00000078  00000+0  00000+0 0  9991",
        "tle_line2": "2 41310   0.0480  66.2166 0004595 205.0507 156.4987  1.00270563 36252"
      },
      "geometry": {
        "type": "Point",
        "coordinates": [
          15.964243518495133,
          -0.021305636791878513
        ]
      }
    },
    {
      "type": "Feature",
      "properties": {
        "norad_id": 41382,
        "name": "EUTELSAT 65 WEST A",
        "group": "eutelsat",
        "lat": -0.0631960194332034,
        "lon": -58.26486730266237,
        "alt_km": 35777.27872666471,
        "timestamp": "2025-12-14T18:52:55.169613+00:00",
        "meta_object_name": "EUTELSAT 65 WEST A",
        "meta_object_id": "2016-014A",
        "meta_epoch": "2025-12-13T21:41:58.159104",
        "meta_mean_motion": 1.00271624,
        "meta_eccentricity": 0.00024594,
        "meta_inclination": 0.0531,
        "meta_ra_of_asc_node": 17.073,
        "meta_arg_of_pericenter": 254.085,
        "meta_mean_anomaly": 71.966,
        "meta_ephemeris_type": 0,
        "meta_classification_type": "U",
        "meta_norad_cat_id": 41382,
        "meta_element_set_no": 999,
        "meta_rev_at_epoch": 3567,
        "meta_bstar": 0,
        "meta_mean_motion_dot": -2.6e-06,
        "meta_mean_motion_ddot": 0,
        "tle_line1": "1 41382U 16014A   25347.90414536 -.00000260  00000+0  00000+0 0  9990",
        "tle_line2": "2 41382   0.0531  17.0730 0002459 254.0850  71.9660  1.00271624 35674"
      },
      "geometry": {
        "type": "Point",
        "coordinates": [
          -58.26486730266237,
          -0.0631960194332034
        ]
      }
    },
    {
      "type": "Feature",
      "properties": {
        "norad_id": 41589,
        "name": "EUTELSAT 117 WEST B",
        "group": "eutelsat",
        "lat": 0.008843824828791085,
        "lon": -110.05728068327369,
        "alt_km": 35787.03822534676,
        "timestamp": "2025-12-14T18:52:55.169627+00:00",
        "meta_object_name": "EUTELSAT 117 WEST B",
        "meta_object_id": "2016-038B",
        "meta_epoch": "2025-12-12T23:11:46.195296",
        "meta_mean_motion": 1.00271866,
        "meta_eccentricity": 2.512e-05,
        "meta_inclination": 0.011,
        "meta_ra_of_asc_node": 153.7448,
        "meta_arg_of_pericenter": 269.9053,
        "meta_mean_anomaly": 249.2194,
        "meta_ephemeris_type": 0,
        "meta_classification_type": "U",
        "meta_norad_cat_id": 41589,
        "meta_element_set_no": 999,
        "meta_rev_at_epoch": 3479,
        "meta_bstar": 0,
        "meta_mean_motion_dot": 1e-08,
        "meta_mean_motion_ddot": 0,
        "tle_line1": "1 41589U 16038B   25346.96650689  .00000001  00000+0  00000+0 0  9993",
        "tle_line2": "2 41589   0.0110 153.7448 0000251 269.9053 249.2194  1.00271866 34790"
      },
      "geometry": {
        "type": "Point",
        "coordinates": [
          -110.05728068327369,
          0.008843824828791085
        ]
      }
    },
    {
      "type": "Feature",
      "properties": {
        "norad_id": 42741,
        "name": "EUTELSAT 172B",
        "group": "eutelsat",
        "lat": -0.007901442536447263,
        "lon": 178.90548300913343,
        "alt_km": 35786.98113664097,
        "timestamp": "2025-12-14T18:52:55.169640+00:00",
        "meta_object_name": "EUTELSAT 172B",
        "meta_object_id": "2017-029B",
        "meta_epoch": "2025-12-13T17:41:33.880416",
        "meta_mean_motion": 1.00271276,
        "meta_eccentricity": 2.259e-05,
        "meta_inclination": 0.0352,
        "meta_ra_of_asc_node": 157.4295,
        "meta_arg_of_pericenter": 233.5393,
        "meta_mean_anomaly": 129.0734,
        "meta_ephemeris_type": 0,
        "meta_classification_type": "U",
        "meta_norad_cat_id": 42741,
        "meta_element_set_no": 999,
        "meta_rev_at_epoch": 3187,
        "meta_bstar": 0,
        "meta_mean_motion_dot": 1e-07,
        "meta_mean_motion_ddot": 0,
        "tle_line1": "1 42741U 17029B   25347.73719769  .00000010  00000+0  00000+0 0  9996",
        "tle_line2": "2 42741   0.0352 157.4295 0000225 233.5393 129.0734  1.00271276 31871"
      },
      "geometry": {
        "type": "Point",
        "coordinates": [
          178.90548300913343,
          -0.007901442536447263
        ]
      }
    }
  ]
}